{"fetched_at":"2026-07-11T09:24:33.530Z","source":"https://celestrak.org/NORAD/elements/gp.php?NAME=PLEIADES&FORMAT=JSON","constellation":"pleiades-neo","records":[{"OBJECT_NAME":"PLEIADES NEO 3","OBJECT_ID":"2021-034A","EPOCH":"2026-07-11T05:27:07.680672","CLASSIFICATION_TYPE":"U","MEAN_MOTION":14.81676338,"ECCENTRICITY":0.0001325,"INCLINATION":97.8939,"RA_OF_ASC_NODE":266.6477,"ARG_OF_PERICENTER":95.8545,"MEAN_ANOMALY":264.2819,"EPHEMERIS_TYPE":0,"NORAD_CAT_ID":48268,"ELEMENT_SET_NO":999,"REV_AT_EPOCH":28121,"BSTAR":0.000073928,"MEAN_MOTION_DOT":0.0000053,"MEAN_MOTION_DDOT":0},{"OBJECT_NAME":"PLEIADES NEO 4","OBJECT_ID":"2021-073E","EPOCH":"2026-07-11T04:38:29.548320","CLASSIFICATION_TYPE":"U","MEAN_MOTION":14.81673985,"ECCENTRICITY":0.0001342,"INCLINATION":97.8938,"RA_OF_ASC_NODE":266.6108,"ARG_OF_PERICENTER":92.5783,"MEAN_ANOMALY":267.5584,"EPHEMERIS_TYPE":0,"NORAD_CAT_ID":49070,"ELEMENT_SET_NO":999,"REV_AT_EPOCH":26492,"BSTAR":0.000057529,"MEAN_MOTION_DOT":0.00000401,"MEAN_MOTION_DDOT":0}]}
