PLEIADES NEO 3          
1 48268U 21034A   26192.22717223  .00000530  00000+0  73928-4 0  9994
2 48268  97.8939 266.6477 0001325  95.8545 264.2819 14.81676338281213
PLEIADES NEO 4          
1 49070U 21073E   26192.19339755  .00000401  00000+0  57529-4 0  9991
2 49070  97.8938 266.6108 0001342  92.5783 267.5584 14.81673985264921
